[{"OBJECT_NAME":"OBJECT V","OBJECT_ID":"2023-085V","EPOCH":"2026-03-09T21:44:00.165408","MEAN_MOTION":15.30745852,"ECCENTRICITY":0.00069081,"INCLINATION":97.4843,"RA_OF_ASC_NODE":179.3833,"ARG_OF_PERICENTER":71.0503,"MEAN_ANOMALY":289.1485,"EPHEMERIS_TYPE":0,"CLASSIFICATION_TYPE":"U","NORAD_CAT_ID":57023,"ELEMENT_SET_NO":999,"REV_AT_EPOCH":15149,"BSTAR":0.00067780507,"MEAN_MOTION_DOT":0.00020109,"MEAN_MOTION_DDOT":0},{"OBJECT_NAME":"STARLINK-34247","OBJECT_ID":"2025-167F","EPOCH":"2026-03-09T06:54:57.430944","MEAN_MOTION":15.30140319,"ECCENTRICITY":0.00011315,"INCLINATION":53.1607,"RA_OF_ASC_NODE":26.0683,"ARG_OF_PERICENTER":114.2157,"MEAN_ANOMALY":245.8962,"EPHEMERIS_TYPE":0,"CLASSIFICATION_TYPE":"U","NORAD_CAT_ID":65083,"ELEMENT_SET_NO":999,"REV_AT_EPOCH":3345,"BSTAR":0.0013333294,"MEAN_MOTION_DOT":0.00039266,"MEAN_MOTION_DDOT":0}]
